PROGRESS-MS 32          
1 65586U 25204A   25329.18985031  .00014011  00000+0  26140-3 0  9991
2 65586  51.6313 229.3494 0003855 165.5942 194.5157 15.49065492   273
CYGNUS NG-23            
1 65616U 25208A   25329.18985031  .00014011  00000+0  26140-3 0  9999
2 65616  51.6313 229.3494 0003855 165.5942 194.5157 15.49065492   222
DRAGONFLY               
1 65729U 98067XH  25330.11272931  .00135859  00000+0  12736-2 0  9999
2 65729  51.6259 220.5120 0006321 183.3895 176.7059 15.66234288 10551
1998-067XJ              
1 65730U 98067XJ  25330.09616337  .00989567  44370-3  26464-2 0  9998
2 65730  51.6173 216.5994 0012384 189.8744 170.2022 15.93800834 10603
1998-067XK              
1 65731U 98067XK  25330.11948109  .00087381  00000+0  96832-3 0  9995
2 65731  51.6289 221.3146 0006097 158.2486 201.8768 15.62206517 10547
RSP-03                  
1 65732U 98067XL  25330.08535856  .00107391  00000+0  11003-2 0  9993
2 65732  51.6282 221.0815 0006884 159.4206 200.7067 15.64113134 10553
GHS-01                  
1 65733U 98067XM  25330.08721833  .00158619  00000+0  13882-2 0  9992
2 65733  51.6284 220.3459 0006797 180.8941 179.2044 15.67847198 10562
YOTSUBA-KULOVER         
1 65941U 98067XN  25329.13757815  .00072537  00000+0  99427-3 0  9990
2 65941  51.6302 228.2532 0002418 127.4758 232.6454 15.56702083  7119
BOTAN                   
1 65942U 98067XP  25329.10958018  .00100010  00000+0  12592-2 0  9991
2 65942  51.6298 228.0671 0004722 130.8647 229.2756 15.58820715  7113
E-KAGAKU-1              
1 65943U 98067XQ  25329.13728393  .00072759  00000+0  99786-3 0  9995
2 65943  51.6305 228.2538 0003962 114.1858 245.9549 15.56681668  7116
HRC MONOBLOCK CAMERA    
1 66052U 98067XR  25330.11725197  .00040478  00000+0  64861-3 0  9995
2 66052  51.6297 224.2929 0004649 118.5222 241.6236 15.52674459  6250
HTV-X1                  
1 66174U 25241A   25329.18985031  .00014011  00000+0  26140-3 0  9996
2 66174  51.6313 229.3494 0003855 165.5942 194.5157 15.49065492  1458
